[{"OBJECT_NAME":"STARLINK-31879","OBJECT_ID":"2024-106R","EPOCH":"2026-03-09T03:21:35.776224","MEAN_MOTION":15.27580603,"ECCENTRICITY":0.00014128,"INCLINATION":43.0029,"RA_OF_ASC_NODE":336.0628,"ARG_OF_PERICENTER":259.6314,"MEAN_ANOMALY":100.4379,"EPHEMERIS_TYPE":0,"CLASSIFICATION_TYPE":"U","NORAD_CAT_ID":59937,"ELEMENT_SET_NO":999,"REV_AT_EPOCH":10048,"BSTAR":-3.8391973e-5,"MEAN_MOTION_DOT":-1.318e-5,"MEAN_MOTION_DDOT":0},{"OBJECT_NAME":"OBJECT D","OBJECT_ID":"2024-018D","EPOCH":"2026-03-09T19:55:21.548928","MEAN_MOTION":14.55118189,"ECCENTRICITY":0.03718814,"INCLINATION":58.6682,"RA_OF_ASC_NODE":179.3794,"ARG_OF_PERICENTER":4.8806,"MEAN_ANOMALY":355.5692,"EPHEMERIS_TYPE":0,"CLASSIFICATION_TYPE":"U","NORAD_CAT_ID":58852,"ELEMENT_SET_NO":999,"REV_AT_EPOCH":11155,"BSTAR":0.00065583894,"MEAN_MOTION_DOT":7.104e-5,"MEAN_MOTION_DDOT":0}]
